[
  {
    "OBJECT_NAME": "STARLINK-5482",
    "OBJECT_ID": "23058AT",
    "EPOCH": "2025-11-11T05:58:12.872640",
    "MEAN_MOTION": 15.01262739,
    "ECCENTRICITY": 7.66e-05,
    "INCLINATION": 97.6012,
    "RA_OF_ASC_NODE": 314.2997,
    "ARG_OF_PERICENTER": 99.0352,
    "MEAN_ANOMALY": 261.0959,
    "EPHEMERIS_TYPE": 0,
    "CLASSIFICATION_TYPE": "U",
    "NORAD_CAT_ID": 56358,
    "ELEMENT_SET_NO": 999,
    "REV_AT_EPOCH": 14036,
    "BSTAR": 0.0,
    "MEAN_MOTION_DOT": -1.92e-06,
    "MEAN_MOTION_DDOT": 0.0,
    "TLE_LINE1": "1 56358U 23058AT  25315.24876010 -.00000192  00000+0 -10447-4 0  9992",
    "TLE_LINE2": "2 56358  97.6012 314.2997 0000766  99.0352 261.0959 15.01262739140368",
    "COMMENT": "Grouped by shell and plane from TLE"
  },
  {
    "OBJECT_NAME": "STARLINK-5551",
    "OBJECT_ID": "23058AU",
    "EPOCH": "2025-11-11T05:50:32.916192",
    "MEAN_MOTION": 15.01239864,
    "ECCENTRICITY": 7.68e-05,
    "INCLINATION": 97.6014,
    "RA_OF_ASC_NODE": 314.3068,
    "ARG_OF_PERICENTER": 151.1548,
    "MEAN_ANOMALY": 208.9719,
    "EPHEMERIS_TYPE": 0,
    "CLASSIFICATION_TYPE": "U",
    "NORAD_CAT_ID": 56359,
    "ELEMENT_SET_NO": 999,
    "REV_AT_EPOCH": 14036,
    "BSTAR": 0.0,
    "MEAN_MOTION_DOT": -6.75e-06,
    "MEAN_MOTION_DDOT": 0.0,
    "TLE_LINE1": "1 56359U 23058AU  25315.24343653 -.00000675  00000+0 -48066-4 0  9999",
    "TLE_LINE2": "2 56359  97.6014 314.3068 0000768 151.1548 208.9719 15.01239864140367",
    "COMMENT": "Grouped by shell and plane from TLE"
  },
  {
    "OBJECT_NAME": "STARLINK-5549",
    "OBJECT_ID": "23058AV",
    "EPOCH": "2025-11-10T10:30:11.737440",
    "MEAN_MOTION": 15.05650804,
    "ECCENTRICITY": 0.0001789,
    "INCLINATION": 97.6025,
    "RA_OF_ASC_NODE": 313.6891,
    "ARG_OF_PERICENTER": 78.991,
    "MEAN_ANOMALY": 281.1518,
    "EPHEMERIS_TYPE": 0,
    "CLASSIFICATION_TYPE": "U",
    "NORAD_CAT_ID": 56360,
    "ELEMENT_SET_NO": 999,
    "REV_AT_EPOCH": 14025,
    "BSTAR": 0.0,
    "MEAN_MOTION_DOT": -6.7e-07,
    "MEAN_MOTION_DDOT": 0.0,
    "TLE_LINE1": "1 56360U 23058AV  25314.43763585 -.00000067  00000+0 -43510-6 0  9997",
    "TLE_LINE2": "2 56360  97.6025 313.6891 0001789  78.9910 281.1518 15.05650804140253",
    "COMMENT": "Grouped by shell and plane from TLE"
  },
  {
    "OBJECT_NAME": "STARLINK-5550",
    "OBJECT_ID": "23058AW",
    "EPOCH": "2025-11-11T05:47:32.617536",
    "MEAN_MOTION": 15.01261585,
    "ECCENTRICITY": 0.0002339,
    "INCLINATION": 97.6002,
    "RA_OF_ASC_NODE": 314.3082,
    "ARG_OF_PERICENTER": 165.0031,
    "MEAN_ANOMALY": 195.1263,
    "EPHEMERIS_TYPE": 0,
    "CLASSIFICATION_TYPE": "U",
    "NORAD_CAT_ID": 56361,
    "ELEMENT_SET_NO": 999,
    "REV_AT_EPOCH": 14036,
    "BSTAR": 0.0,
    "MEAN_MOTION_DOT": -5.69e-06,
    "MEAN_MOTION_DDOT": 0.0,
    "TLE_LINE1": "1 56361U 23058AW  25315.24134974 -.00000569  00000+0 -39781-4 0  9992",
    "TLE_LINE2": "2 56361  97.6002 314.3082 0002339 165.0031 195.1263 15.01261585140366",
    "COMMENT": "Grouped by shell and plane from TLE"
  },
  {
    "OBJECT_NAME": "STARLINK-5972",
    "OBJECT_ID": "23058AX",
    "EPOCH": "2025-11-11T05:46:34.175712",
    "MEAN_MOTION": 15.05651225,
    "ECCENTRICITY": 0.0001613,
    "INCLINATION": 97.6025,
    "RA_OF_ASC_NODE": 314.4664,
    "ARG_OF_PERICENTER": 86.8925,
    "MEAN_ANOMALY": 273.2486,
    "EPHEMERIS_TYPE": 0,
    "CLASSIFICATION_TYPE": "U",
    "NORAD_CAT_ID": 56362,
    "ELEMENT_SET_NO": 999,
    "REV_AT_EPOCH": 14037,
    "BSTAR": 5.5184000000000006e-05,
    "MEAN_MOTION_DOT": 7.36e-06,
    "MEAN_MOTION_DDOT": 0.0,
    "TLE_LINE1": "1 56362U 23058AX  25315.24067333  .00000736  00000+0  55184-4 0  9996",
    "TLE_LINE2": "2 56362  97.6025 314.4664 0001613  86.8925 273.2486 15.05651225140379",
    "COMMENT": "Grouped by shell and plane from TLE"
  },
  {
    "OBJECT_NAME": "STARLINK-5525",
    "OBJECT_ID": "23094A",
    "EPOCH": "2025-11-11T01:58:11.937504",
    "MEAN_MOTION": 15.02547391,
    "ECCENTRICITY": 0.0001401,
    "INCLINATION": 43.0057,
    "RA_OF_ASC_NODE": 315.2139,
    "ARG_OF_PERICENTER": 288.2362,
    "MEAN_ANOMALY": 71.8327,
    "EPHEMERIS_TYPE": 0,
    "CLASSIFICATION_TYPE": "U",
    "NORAD_CAT_ID": 57218,
    "ELEMENT_SET_NO": 999,
    "REV_AT_EPOCH": 12927,
    "BSTAR": 3.3989e-05,
    "MEAN_MOTION_DOT": 2.56e-06,
    "MEAN_MOTION_DDOT": 0.0,
    "TLE_LINE1": "1 57218U 23094A   25315.08208261  .00000256  00000+0  33989-4 0  9992",
    "TLE_LINE2": "2 57218  43.0057 315.2139 0001401 288.2362  71.8327 15.02547391129271",
    "COMMENT": "Grouped by shell and plane from TLE"
  },
  {
    "OBJECT_NAME": "STARLINK-5520",
    "OBJECT_ID": "23094B",
    "EPOCH": "2025-11-11T06:40:35.067360",
    "MEAN_MOTION": 15.02539236,
    "ECCENTRICITY": 0.0001024,
    "INCLINATION": 43.0054,
    "RA_OF_ASC_NODE": 314.1047,
    "ARG_OF_PERICENTER": 256.761,
    "MEAN_ANOMALY": 103.3118,
    "EPHEMERIS_TYPE": 0,
    "CLASSIFICATION_TYPE": "U",
    "NORAD_CAT_ID": 57219,
    "ELEMENT_SET_NO": 999,
    "REV_AT_EPOCH": 12930,
    "BSTAR": 1.2103e-05,
    "MEAN_MOTION_DOT": -4e-07,
    "MEAN_MOTION_DDOT": 0.0,
    "TLE_LINE1": "1 57219U 23094B   25315.27818365 -.00000040  00000+0  12103-4 0  9993",
    "TLE_LINE2": "2 57219  43.0054 314.1047 0001024 256.7610 103.3118 15.02539236129304",
    "COMMENT": "Grouped by shell and plane from TLE"
  },
  {
    "OBJECT_NAME": "STARLINK-5880",
    "OBJECT_ID": "23094C",
    "EPOCH": "2025-11-11T01:31:01.267104",
    "MEAN_MOTION": 15.025679,
    "ECCENTRICITY": 0.0001562,
    "INCLINATION": 43.0045,
    "RA_OF_ASC_NODE": 315.0692,
    "ARG_OF_PERICENTER": 274.3303,
    "MEAN_ANOMALY": 85.7361,
    "EPHEMERIS_TYPE": 0,
    "CLASSIFICATION_TYPE": "U",
    "NORAD_CAT_ID": 57220,
    "ELEMENT_SET_NO": 999,
    "REV_AT_EPOCH": 12927,
    "BSTAR": 0.0,
    "MEAN_MOTION_DOT": -3.399e-05,
    "MEAN_MOTION_DDOT": 0.0,
    "TLE_LINE1": "1 57220U 23094C   25315.06320911 -.00003399  00000+0 -23646-3 0  9991",
    "TLE_LINE2": "2 57220  43.0045 315.0692 0001562 274.3303  85.7361 15.02567900129272",
    "COMMENT": "Grouped by shell and plane from TLE"
  },
  {
    "OBJECT_NAME": "STARLINK-5875",
    "OBJECT_ID": "23094D",
    "EPOCH": "2025-11-11T06:37:23.337120",
    "MEAN_MOTION": 15.02534646,
    "ECCENTRICITY": 0.0001127,
    "INCLINATION": 43.0044,
    "RA_OF_ASC_NODE": 314.0879,
    "ARG_OF_PERICENTER": 264.6032,
    "MEAN_ANOMALY": 95.4682,
    "EPHEMERIS_TYPE": 0,
    "CLASSIFICATION_TYPE": "U",
    "NORAD_CAT_ID": 57221,
    "ELEMENT_SET_NO": 999,
    "REV_AT_EPOCH": 12930,
    "BSTAR": 2.8990000000000002e-05,
    "MEAN_MOTION_DOT": 1.88e-06,
    "MEAN_MOTION_DDOT": 0.0,
    "TLE_LINE1": "1 57221U 23094D   25315.27596455  .00000188  00000+0  28990-4 0  9992",
    "TLE_LINE2": "2 57221  43.0044 314.0879 0001127 264.6032  95.4682 15.02534646129305",
    "COMMENT": "Grouped by shell and plane from TLE"
  },
  {
    "OBJECT_NAME": "STARLINK-5870",
    "OBJECT_ID": "23094E",
    "EPOCH": "2025-11-11T06:27:47.365344",
    "MEAN_MOTION": 15.02539782,
    "ECCENTRICITY": 0.0001234,
    "INCLINATION": 43.0058,
    "RA_OF_ASC_NODE": 314.0374,
    "ARG_OF_PERICENTER": 255.3147,
    "MEAN_ANOMALY": 104.7559,
    "EPHEMERIS_TYPE": 0,
    "CLASSIFICATION_TYPE": "U",
    "NORAD_CAT_ID": 57222,
    "ELEMENT_SET_NO": 999,
    "REV_AT_EPOCH": 12993,
    "BSTAR": 0.00018229000000000002,
    "MEAN_MOTION_DOT": 2.26e-05,
    "MEAN_MOTION_DDOT": 0.0,
    "TLE_LINE1": "1 57222U 23094E   25315.26929821  .00002260  00000+0  18229-3 0  9995",
    "TLE_LINE2": "2 57222  43.0058 314.0374 0001234 255.3147 104.7559 15.02539782129936",
    "COMMENT": "Grouped by shell and plane from TLE"
  },
  {
    "OBJECT_NAME": "STARLINK-5519",
    "OBJECT_ID": "23094F",
    "EPOCH": "2025-11-11T06:32:35.376288",
    "MEAN_MOTION": 15.02542624,
    "ECCENTRICITY": 0.0001148,
    "INCLINATION": 43.0036,
    "RA_OF_ASC_NODE": 314.0598,
    "ARG_OF_PERICENTER": 264.471,
    "MEAN_ANOMALY": 95.6001,
    "EPHEMERIS_TYPE": 0,
    "CLASSIFICATION_TYPE": "U",
    "NORAD_CAT_ID": 57223,
    "ELEMENT_SET_NO": 999,
    "REV_AT_EPOCH": 12930,
    "BSTAR": 0.0001476,
    "MEAN_MOTION_DOT": 1.791e-05,
    "MEAN_MOTION_DDOT": 0.0,
    "TLE_LINE1": "1 57223U 23094F   25315.27263167  .00001791  00000+0  14760-3 0  9995",
    "TLE_LINE2": "2 57223  43.0036 314.0598 0001148 264.4710  95.6001 15.02542624129302",
    "COMMENT": "Grouped by shell and plane from TLE"
  },
  {
    "OBJECT_NAME": "STARLINK-5983",
    "OBJECT_ID": "23094G",
    "EPOCH": "2025-11-11T06:23:00.278016",
    "MEAN_MOTION": 15.02535332,
    "ECCENTRICITY": 0.0001255,
    "INCLINATION": 43.0075,
    "RA_OF_ASC_NODE": 314.0121,
    "ARG_OF_PERICENTER": 265.6442,
    "MEAN_ANOMALY": 94.4257,
    "EPHEMERIS_TYPE": 0,
    "CLASSIFICATION_TYPE": "U",
    "NORAD_CAT_ID": 57224,
    "ELEMENT_SET_NO": 999,
    "REV_AT_EPOCH": 12930,
    "BSTAR": 3.642000000000001e-05,
    "MEAN_MOTION_DOT": 2.88e-06,
    "MEAN_MOTION_DDOT": 0.0,
    "TLE_LINE1": "1 57224U 23094G   25315.26597544  .00000288  00000+0  36420-4 0  9992",
    "TLE_LINE2": "2 57224  43.0075 314.0121 0001255 265.6442  94.4257 15.02535332129300",
    "COMMENT": "Grouped by shell and plane from TLE"
  },
  {
    "OBJECT_NAME": "STARLINK-6294",
    "OBJECT_ID": "23094H",
    "EPOCH": "2025-11-11T06:35:46.809312",
    "MEAN_MOTION": 15.02544293,
    "ECCENTRICITY": 0.0001318,
    "INCLINATION": 43.0046,
    "RA_OF_ASC_NODE": 314.0727,
    "ARG_OF_PERICENTER": 270.3466,
    "MEAN_ANOMALY": 89.7225,
    "EPHEMERIS_TYPE": 0,
    "CLASSIFICATION_TYPE": "U",
    "NORAD_CAT_ID": 57225,
    "ELEMENT_SET_NO": 999,
    "REV_AT_EPOCH": 12930,
    "BSTAR": 8.1137e-05,
    "MEAN_MOTION_DOT": 8.93e-06,
    "MEAN_MOTION_DDOT": 0.0,
    "TLE_LINE1": "1 57225U 23094H   25315.27484733  .00000893  00000+0  81137-4 0  9996",
    "TLE_LINE2": "2 57225  43.0046 314.0727 0001318 270.3466  89.7225 15.02544293129308",
    "COMMENT": "Grouped by shell and plane from TLE"
  }
]